H1 CPF 01  gfz 2022 10 30 00  8031 terrasarx 
H2 0702601  6201 31698    2022 10 30 00 59 42 2022 11 04 00 00 42   120 1 1  0 0 0
H9
10 0 59886  22302.000000  0    4112804.566   -896835.157  -5460355.859
10 0 59886  22422.000000  0    3340510.119   -957036.407  -5955091.284
10 0 59886  22542.000000  0    2509487.996   -986607.663  -6345796.903
10 0 59886  22662.000000  0    1634734.449   -984152.632  -6625731.721
10 0 59886  22782.000000  0     731992.908   -949095.892  -6790074.457
10 0 59886  22902.000000  0    -182526.087   -881702.505  -6835998.289
10 0 59886  23022.000000  0   -1092430.200   -783078.382  -6762713.500
10 0 59886  23142.000000  0   -1981432.143   -655152.587  -6571480.062
10 0 59886  23262.000000  0   -2833635.041   -500640.856  -6265587.423
10 0 59886  23382.000000  0   -3633809.832   -322991.791  -5850303.395
10 0 59886  23502.000000  0   -4367664.889   -126315.782  -5332794.473
10 0 59886  23622.000000  0   -5022103.012     84702.265  -4722012.691
10 0 59886  23742.000000  0   -5585459.809    304904.372  -4028552.854
10 0 59886  23862.000000  0   -6047721.545    528774.912  -3264479.509
10 0 59886  23982.000000  0   -6400715.116    750566.839  -2443124.441
10 0 59886  24102.000000  0   -6638265.377    964436.570  -1578857.747
10 0 59886  24222.000000  0   -6756316.558   1164583.778   -686836.986
10 0 59886  24342.000000  0   -6753012.975   1345392.921    217264.356
10 0 59886  24462.000000  0   -6628733.361   1501572.361   1117539.054
10 0 59886  24582.000000  0   -6386082.642   1628288.712   1998133.569
10 0 59886  24702.000000  0   -6029838.748   1721292.246   2843536.561
10 0 59886  24822.000000  0   -5566854.981   1777029.489   3638861.025
10 0 59886  24942.000000  0   -5005920.356   1792740.161   4370112.720
10 0 59886  25062.000000  0   -4357583.358   1766536.557   5024438.886
10 0 59886  25182.000000  0   -3633944.448   1697463.718   5590353.474
10 0 59886  25302.000000  0   -2848422.411   1585539.139   6057936.520
10 0 59886  25422.000000  0   -2015497.684   1431771.622   6419004.729
10 0 59886  25542.000000  0   -1150438.556   1238157.801   6667248.338
10 0 59886  25662.000000  0    -269018.117   1007657.350   6798333.971
10 0 59886  25782.000000  0     612773.185    744147.659   6809974.833
10 0 59886  25902.000000  0    1479016.484    452358.340   6701967.932
10 0 59886  26022.000000  0    2314150.458    137786.933   6476197.469
10 0 59886  26142.000000  0    3103250.185   -193403.584   6136605.202
10 0 59886  26262.000000  0    3832295.759   -534503.985   5689126.431
10 0 59886  26382.000000  0    4488424.740   -878392.442   5141591.554
10 0 59886  26502.000000  0    5060164.550  -1217680.899   4503595.464
10 0 59886  26622.000000  0    5537641.005  -1544870.634   3786334.548
10 0 59886  26742.000000  0    5912758.062  -1852514.635   3002413.314
10 0 59886  26862.000000  0    6179344.538  -2133383.137   2165623.064
10 0 59886  26982.000000  0    6333263.267  -2380627.981   1290696.724
10 0 59886  27102.000000  0    6372480.924  -2587941.742    393044.190
10 0 59886  27222.000000  0    6297095.177  -2749707.912   -511527.184
10 0 59886  27342.000000  0    6109319.108  -2861137.562  -1407100.064
10 0 59886  27462.000000  0    5813421.379  -2918389.416  -2277936.574
10 0 59886  27582.000000  0    5415625.731  -2918669.680  -3108761.360
10 0 59886  27702.000000  0    4923973.323  -2860309.652  -3885033.534
10 0 59886  27822.000000  0    4348151.733  -2742820.443  -4593201.686
10 0 59886  27942.000000  0    3699294.347  -2566923.010  -5220938.203
10 0 59886  28062.000000  0    2989755.503  -2334552.642  -5757346.429
10 0 59886  28182.000000  0    2232870.126  -2048839.594  -6193139.060
10 0 59886  28302.000000  0    1442701.247  -1714066.697  -6520789.484
10 0 59886  28422.000000  0     633777.600  -1335602.953  -6734651.412
10 0 59886  28542.000000  0    -179170.774   -919816.802  -6831045.531
10 0 59886  28662.000000  0    -981475.404   -473970.041  -6808315.296
10 0 59886  28782.000000  0   -1758787.768     -6093.841  -6666852.336
10 0 59886  28902.000000  0   -2497330.192    475152.571  -6409089.573
10 0 59886  29022.000000  0   -3184134.286    960637.478  -6039463.599
10 0 59886  29142.000000  0   -3807265.413   1440925.243  -5564347.312
10 0 59886  29262.000000  0   -4356031.509   1906455.194  -4991951.459
10 0 59886  29382.000000  0   -4821171.228   2347729.542  -4332194.431
10 0 59886  29502.000000  0   -5195017.124   2755505.743  -3596540.161
10 0 59886  29622.000000  0   -5471630.534   3120988.414  -2797807.937
10 0 59886  29742.000000  0   -5646906.453   3436018.617  -1949955.325
10 0 59886  29862.000000  0   -5718643.580   3693255.620  -1067836.083
10 0 59886  29982.000000  0   -5686577.018   3886345.256   -166937.504
10 0 59886  30102.000000  0   -5552372.905   4010071.537    736896.897
10 0 59886  30222.000000  0   -5319583.276   4060486.346   1627755.409
10 0 59886  30342.000000  0   -4993561.139   4035013.063   2489947.454
10 0 59886  30462.000000  0   -4581340.227   3932522.862   3308287.707
10 0 59886  30582.000000  0   -4091482.118   3753381.676   4068371.133
10 0 59886  30702.000000  0   -3533893.967   3499465.002   4756830.868
10 0 59886  30822.000000  0   -2919622.907   3174142.793   5361574.825
10 0 59886  30942.000000  0   -2260630.734   2782233.719   5871996.769
10 0 59886  31062.000000  0   -1569555.668   2329930.539   6279158.578
10 0 59886  31182.000000  0    -859465.143   1824697.995   6575940.630
10 0 59886  31302.000000  0    -143607.579   1275146.498   6757158.420
10 0 59886  31422.000000  0     564834.355    690883.544   6819648.309
10 0 59886  31542.000000  0    1252985.935     82345.447   6762318.789
10 0 59886  31662.000000  0    1908513.086   -539388.194   6586168.622
10 0 59886  31782.000000  0    2519842.787  -1162795.728   6294271.222
10 0 59886  31902.000000  0    3076368.033  -1776125.970   5891725.140
10 0 59886  32022.000000  0    3568634.901  -2367619.982   5385570.691
10 0 59886  32142.000000  0    3988507.009  -2925737.286   4784672.404
10 0 59886  32262.000000  0    4329304.970  -3439383.315   4099569.718
10 0 59886  32382.000000  0    4585918.084  -3898133.722   3342296.251
10 0 59886  32502.000000  0    4754886.062  -4292450.186   2526170.084
10 0 59886  32622.000000  0    4834448.004  -4613882.041   1665557.325
10 0 59886  32742.000000  0    4824556.180  -4855248.770    775614.626
10 0 59886  32862.000000  0    4726854.985  -5010799.707   -127984.397
10 0 59886  32982.000000  0    4544625.404  -5076345.621  -1029333.189
10 0 59886  33102.000000  0    4282697.163  -5049359.116  -1912581.509
10 0 59886  33222.000000  0    3947328.816  -4929040.957  -2762222.146
10 0 59886  33342.000000  0    3546060.704  -4716351.121  -3563368.972
10 0 59886  33462.000000  0    3087544.366  -4414004.427  -4302020.011
10 0 59886  33582.000000  0    2581353.678  -4026431.554  -4965301.586
10 0 59886  33702.000000  0    2037781.389  -3559705.632  -5541687.195
10 0 59886  33822.000000  0    1467628.396  -3021439.487  -6021187.761
10 0 59886  33942.000000  0     881989.406  -2420656.490  -6395514.622
10 0 59886  34062.000000  0     292037.916  -1767635.247  -6658212.704
10 0 59886  34182.000000  0    -291184.138  -1073731.497  -6804761.022
10 0 59886  34302.000000  0    -856967.912   -351181.698  -6832641.338
10 0 59886  34422.000000  0   -1395129.169    387108.595  -6741376.188
10 0 59886  34542.000000  0   -1896187.524   1127789.250  -6532535.544
10 0 59886  34662.000000  0   -2351529.408   1857300.973  -6209712.685
10 0 59886  34782.000000  0   -2753553.882   2562117.364  -5778469.479
10 0 59886  34902.000000  0   -3095799.846   3228992.280  -5246251.147
10 0 59886  35022.000000  0   -3373052.371   3845208.208  -4622269.669
10 0 59886  35142.000000  0   -3581426.437   4398821.264  -3917354.986
10 0 59886  35262.000000  0   -3718424.073   4878896.796  -3143775.262
10 0 59886  35382.000000  0   -3782964.140   5275730.438  -2315030.715
10 0 59886  35502.000000  0   -3775385.949   5581051.428  -1445622.816
10 0 59886  35622.000000  0   -3697424.112   5788203.149   -550800.564
10 0 59886  35742.000000  0   -3552153.877   5892292.915    353711.637
10 0 59886  35862.000000  0   -3343910.506   5890308.221   1251996.629
10 0 59886  35982.000000  0   -3078181.177   5781196.593   2128234.906
10 0 59886  36102.000000  0   -2761471.959   5565904.096   2966993.718
10 0 59886  36222.000000  0   -2401155.400   5247371.907   3753506.224
10 0 59886  36342.000000  0   -2005303.080   4830493.838   4473936.213
10 0 59886  36462.000000  0   -1582506.999   4322035.296   5115623.879
10 0 59886  36582.000000  0   -1141693.582   3730516.076   5667308.590
10 0 59886  36702.000000  0    -691935.394   3066058.914   6119323.036
10 0 59886  36822.000000  0    -242265.213   2340208.637   6463757.151
10 0 59886  36942.000000  0     198504.009   1565726.757   6694590.052
10 0 59886  37062.000000  0     621950.935    756363.829   6807790.174
10 0 59886  37182.000000  0    1020205.682    -73385.861   6801380.165
10 0 59886  37302.000000  0    1386094.975   -908542.598   6675469.896
10 0 59886  37422.000000  0    1713271.058  -1733911.368   6432255.303
10 0 59886  37542.000000  0    1996322.190  -2534357.622   6075982.991
10 0 59886  37662.000000  0    2230863.137  -3295086.073   5612881.168
10 0 59886  37782.000000  0    2413604.135  -4001916.931   5051056.003
10 0 59886  37902.000000  0    2542396.542  -4641553.979   4400355.319
10 0 59886  38022.000000  0    2616256.009  -5201841.111   3672201.288
10 0 59886  38142.000000  0    2635361.326  -5672001.319   2879392.251
10 0 59886  38262.000000  0    2601027.854  -6042852.948   2035877.716
10 0 59886  38382.000000  0    2515656.748  -6306995.706   1156509.125
10 0 59886  38502.000000  0    2382661.675  -6458963.147    256774.092
10 0 59886  38622.000000  0    2206374.734  -6495340.171   -647483.419
10 0 59886  38742.000000  0    1991932.640  -6414838.432  -1540352.711
99
